BADR-7 (ARABSAT-6B)     
1 41029U 15065B   22327.30466030  .00000168  00000+0  00000+0 0  9994
2 41029   0.0519 255.9751 0006944 343.1487 318.8512  1.00272128 25716
LAOSAT 1                
1 41034U 15067A   22327.56728216 -.00000320  00000+0  00000+0 0  9998
2 41034   0.0613 108.9231 0001848  89.5636 196.7711  1.00273893 25794
TELSTAR 12V             
1 41036U 15068A   22327.43521660 -.00000096  00000+0  00000+0 0  9991
2 41036   0.0179 330.4896 0002036 273.7318 319.8769  1.00271812 25572
CHINASAT 1C (ZX 1C)     
1 41103U 15073A   22327.50715509 -.00000098  00000+0  00000+0 0  9999
2 41103   3.7878  83.6007 0001861 144.0553  95.6831  1.00272319 25606
ELEKTRO-L 2             
1 41105U 15074A   22327.41693940 -.00000093  00000+0  00000+0 0  9991
2 41105   3.3845  86.2336 0002942 141.6311 330.1602  1.00271038 25462
COSMOS 2513             
1 41121U 15075A   22327.44979841 -.00000116  00000+0  00000+0 0  9996
2 41121   0.0607 108.3191 0003351 139.5081  56.7970  1.00273101 25473
EXPRESS-AMU1            
1 41191U 15082A   22327.49870010  .00000178  00000+0  00000+0 0  9991
2 41191   0.0178 290.1092 0002538 317.6818  30.3367  1.00270782 25218
GAOFEN 4                
1 41194U 15083A   22327.59212411 -.00000313  00000+0  00000+0 0  9993
2 41194   0.0179 327.3493 0005301 241.3142 172.7819  1.00271989 25464
BELINTERSAT-1           
1 41238U 16001A   22327.46091015  .00000129  00000+0  00000+0 0  9998
2 41238   0.0042 102.0849 0001882 105.7870  71.9983  1.00273171 25182
IRNSS-1E                
1 41241U 16003A   22326.81488356 -.00000278  00000+0  00000+0 0  9996
2 41241  30.3345  82.1638 0022289 180.8429 203.7239  1.00265033 25143
EUTELSAT 9B             
1 41310U 16005A   22327.42549378  .00000085  00000+0  00000+0 0  9990
2 41310   0.0687  80.9797 0005192 172.8412 330.7538  1.00271147 25069
SES-9                   
1 41380U 16013A   22327.44134557 -.00000323  00000+0  00000+0 0  9993
2 41380   0.0174 299.8449 0000732 210.6563 179.1025  1.00270278 24389
EUTELSAT 65 WEST A      
1 41382U 16014A   22327.43791375 -.00000253  00000+0  00000+0 0  9994
2 41382   0.0598  31.3550 0001858 203.4919 279.9981  1.00274489 24498
IRNSS-1F                
1 41384U 16015A   22327.49774128  .00000185  00000+0  00000+0 0  9993
2 41384   2.4051 145.5591 0020450 176.6259 311.8781  1.00268802 24609
BEIDOU IGSO-6           
1 41434U 16021A   22326.99174664 -.00000166  00000+0  00000+0 0  9999
2 41434  58.3290  51.2026 0049643 220.3468 240.6374  1.00294771 24421
IRNSS-1G                
1 41469U 16027A   22327.56791221 -.00000310  00000+0  00000+0 0  9992
2 41469   2.3205 148.0016 0000606 247.7203   0.7975  1.00268066 24121
JCSAT-2B                
1 41471U 16028A   22326.71785597 -.00000142  00000+0  00000+0 0  9994
2 41471   0.0137 298.6845 0000526 321.9242 213.5229  1.00269980 24025
THAICOM 8               
1 41552U 16031A   22327.50715509 -.00000099  00000+0  00000+0 0  9993
2 41552   0.0694  53.5426 0001687 249.5618  20.4917  1.00271520 23668
INTELSAT 31 (IS-31)     
1 41581U 16035A   22325.03368810 -.00000127  00000+0  00000+0 0  9996
2 41581   0.0192 262.1949 0001931 312.1646 122.7582  1.00264979 23610
BEIDOU-2 G7             
1 41586U 16037A   22327.59829009 -.00000332  00000+0  00000+0 0  9996
2 41586   1.7308  69.2979 0008046 351.4071 327.8035  1.00273672 23737
ABS-2A (MONGOLSAT-1)    
1 41588U 16038A   22327.36021360 -.00000060  00000+0  00000+0 0  9996
2 41588   0.0253 291.1970 0001871 208.0002 127.5181  1.00267336 23644
EUTELSAT 117 WEST B     
1 41589U 16038B   22327.53231047  .00000011  00000+0  00000+0 0  9996
2 41589   0.0125 153.4192 0000357 135.4204 208.2971  1.00275019 23623
BRISAT                  
1 41591U 16039A   22327.36377906 -.00000174  00000+0  00000+0 0  9997
2 41591   0.0173 311.1574 0002022 281.9529 110.6884  1.00270557 23557
ECHOSTAR 18             
1 41592U 16039B   22327.57435897 -.00000259  00000+0  00000+0 0  9999
2 41592   0.0182 327.4963 0001267 274.0953 326.3397  1.00268075 23573
MUOS-5                  
1 41622U 16041A   22327.57488345 -.00000098  00000+0  00000+0 0  9993
2 41622   5.2426 299.7315 0199271 240.7986 344.0061  1.00272222 24032
TIANTONG-1 1            
1 41725U 16048A   22327.44003810 -.00000297  00000+0  00000+0 0  9991
2 41725   2.2541   5.5168 0006239 308.7933   7.9430  1.00270103 23218
JCSAT-16                
1 41729U 16050A   22326.93620419 -.00000231  00000+0  00000+0 0  9999
2 41729   0.0798  92.5528 0003690 176.0403 223.3689  1.00270521 23016
USA 270                 
1 41744U 16052A   22314.43498329 -.00000264  00000+0  00000+0 0  9999
2 41744   0.8179  93.9946 0000335 133.5964 116.2124  1.00420352  5558
USA 271                 
1 41745U 16052B   22313.15646564  .00000039  00000+0  00000+0 0  9993
2 41745   0.7809  93.9703 0000642 154.9654 274.3090  1.00422373  5545
INTELSAT 36 (IS-36)     
1 41747U 16053A   22327.57688705 -.00000002  00000+0  00000+0 0  9991
2 41747   0.0123 335.0561 0001286  46.6663 317.0023  1.00270884 22899
INTELSAT 33E (IS-33E)   
1 41748U 16053B   22327.58105105  .00000072  00000+0  00000+0 0  9997
2 41748   0.0091 305.0001 0001659 287.9680  98.7479  1.00271664 23169
INSAT-3DR               
1 41752U 16054A   22327.50628345 -.00000055  00000+0  00000+0 0  9993
2 41752   0.1242  94.2683 0013614 172.0149  52.4797  1.00272113 22769
GSAT-18                 
1 41793U 16060A   22327.50628345 -.00000055  00000+0  00000+0 0  9995
2 41793   0.0695  98.8869 0001468 177.3340  42.5265  1.00270672 22483
SKY MUSTER 2 (NBN1B)    
1 41794U 16060B   22327.58741226 -.00000222  00000+0  00000+0 0  9994
2 41794   0.0147 299.8795 0001402 296.6002 182.3652  1.00270761 22465
HIMAWARI-9              
1 41836U 16064A   22327.57843007 -.00000253  00000+0  00000+0 0  9998
2 41836   0.0352 162.5999 0000847  80.4169 168.5102  1.00269387 22139
SHIJIAN-17 (SJ-17)      
1 41838U 16065A   22327.69172435 -.00000240  00000+0  00000+0 0  9990
2 41838   2.4276  87.8396 0003504 245.2850  72.7152  1.00267447 22173
GOES 16                 
1 41866U 16071A   22327.54803545 -.00000226  00000+0  00000+0 0  9999
2 41866   0.0510 262.9174 0000572  24.9393 256.7708  1.00270691 22058
TIANLIAN 1-04           
1 41869U 16072A   22327.54575131  .00000055  00000+0  00000+0 0  9999
2 41869   0.0723 281.3375 0023668 215.9612 298.5349  1.00274853 22264
WGS F8 (USA 272)        
1 41879U 16075A   22327.36377921 -.00000180  00000+0  00000+0 0  9990
2 41879   0.0127 323.4339 0000251 237.3453 142.3174  1.00270540 21771
FENGYUN 4A              
1 41882U 16077A   22327.64488484 -.00000308  00000+0  00000+0 0  9996
2 41882   0.0860 296.3236 0005543  98.1876   4.8943  1.00270760 21932
ECHOSTAR 19             
1 41893U 16079A   22327.58544163 -.00000115  00000+0  00000+0 0  9996
2 41893   0.0163 332.7201 0001171 263.4920 299.9708  1.00269844 21664
JCSAT-110A (JCSAT-15)   
1 41903U 16082A   22327.44169422 -.00000328  00000+0  00000+0 0  9994
2 41903   0.0139 304.9463 0001174 305.4031  81.1497  1.00270364 21703
STAR ONE D1             
1 41904U 16082B   22327.47481691 -.00000188  00000+0  00000+0 0  9997
2 41904   0.0253  87.3021 0002291 151.2145 270.8532  1.00273316 21726
TJS-2                   
1 41911U 17001A   22327.50480164  .00000017  00000+0  00000+0 0  9995
2 41911   0.0735 310.3357 0005207 270.3026  90.0518  1.00269869 21679
SBIRS GEO-4 (USA 273)   
1 41937U 17004A   22327.02920919  .00000151  00000+0  00000+0 0  9999
2 41937   2.0485 322.7379 0002238 272.4981  37.8979  1.00272153 21542
HISPASAT 36W-1          
1 41942U 17006A   22327.48834531 -.00000222  00000+0  00000+0 0  9991
2 41942   0.0089 327.3304 0001046 274.3365 320.5752  1.00269936 21173
TELKOM 3S               
1 41944U 17007A   22327.55082539 -.00000340  00000+0  00000+0 0  9996
2 41944   0.0131 294.6342 0002127 303.0921 141.0987  1.00270177 21085
INTELSAT 32E (IS-32E)   
1 41945U 17007B   22327.48292324 -.00000246  00000+0  00000+0 0  9999
2 41945   0.0173 346.2792 0000445 117.6317  89.2294  1.00269706 21185
ECHOSTAR 23             
1 42070U 17014A   22327.53128635 -.00000034  00000+0  00000+0 0  9991
2 42070   0.0169 322.5719 0001952 277.9304 263.3328  1.00269879 20875
WGS F9 (USA 275)        
1 42075U 17016A   22327.44215854 -.00000074  00000+0  00000+0 0  9992
2 42075   0.0209 294.8417 0000519 204.5443  70.1705  1.00269209 20879
SES-10                  
1 42432U 17017A   22327.47821635 -.00000250  00000+0  00000+0 0  9999
2 42432   0.0122 358.2249 0002748 247.9670 281.5217  1.00269184 20695
CHINASAT 16 (SJ-13)     
1 42662U 17018A   22327.65215892 -.00000330  00000+0  00000+0 0  9996
2 42662   0.0628  98.0453 0007500 145.7190 164.1225  1.00266526 20692
KOREASAT 7              
1 42691U 17023A   22327.54761067 -.00000339  00000+0  00000+0 0  9991
2 42691   0.0285  41.0666 0001882 187.9858 146.4987  1.00271017 20322
SGDC                    
1 42692U 17023B   22327.03567822 -.00000226  00000+0  00000+0 0  9994
2 42692   0.0331  62.4330 0002087 183.1382 114.4456  1.00271225 20369
GSAT-9                  
1 42695U 17024A   22327.05813420 -.00000263  00000+0  00000+0 0  9999
2 42695   0.1267  96.2180 0002106 149.2937 294.7616  1.00268452 20256
INMARSAT 5-F4           
1 42698U 17025A   22327.50279685  .00000098  00000+0  00000+0 0  9997
2 42698   0.0192 314.1474 0000118 285.8150  60.0261  1.00269622 20214
SES-15                  
1 42709U 17026A   22327.54492612  .00000083  00000+0  00000+0 0  9996
2 42709   0.0209 349.5313 0000068 196.6194 303.3887  1.00266530 21090
QZS-2 (MICHIBIKI-2)     
1 42738U 17028A   22327.55991623 -.00000181  00000+0  00000+0 0  9997
2 42738  41.5113 261.9167 0762277 269.1623 232.0674  1.00292511 20099
VIASAT-2                
1 42740U 17029A   22327.43459449 -.00000242  00000+0  00000+0 0  9991
2 42740   0.0229 283.3090 0000162 174.1226  51.5298  1.00271957 20137
